{"fetched_at":"2026-03-30T09:12:31Z","count":15922,"tles":[{"name":"STARLINK-30503","line1":"1 57975U 23151M   26087.85674359  .00004091  00000+0  15826-3 0  9993","line2":"2 57975  42.9999 228.0700 0000318 164.0442 196.0419 15.27543433138693","category":"Starlink"}]}